CORAL                   
1 67684U 98067YA  26092.00940574  .00095906  00000+0  12221-2 0  9997
2 67684  51.6293 314.8808 0013294 261.1138  98.8349 15.58432095  8429
GXIBA-1                 
1 67685U 98067YB  26091.88479556  .00048495  00000+0  72618-3 0  9998
2 67685  51.6317 316.2995 0012295 267.6907  92.2676 15.54391194  8392
UITMSAT-2               
1 67686U 98067YC  26092.31730001  .00078647  00000+0  11234-2 0  9991
2 67686  51.6307 313.9404 0009338 243.0749 116.9288 15.55507435  8466
HMU-SAT2                
1 67687U 98067YD  26092.01899921  .00048045  00000+0  72719-3 0  9991
2 67687  51.6316 315.6984 0008907 244.0786 115.9287 15.54142799  8333
LEOPARD                 
1 67688U 98067YE  26092.00396077  .00054438  00000+0  79751-3 0  9991
2 67688  51.6310 315.5981 0009094 241.6191 118.3884 15.54979490  8331
CREW DRAGON 12          
1 67796U 26031A   26092.13346771  .00010892  00000+0  20755-3 0  9999
2 67796  51.6331 316.4579 0006239 262.1298  97.8982 15.48713693559932
PROGRESS-MS 33          
1 68319U 26058A   26092.13346771  .00010892  00000+0  20755-3 0  9990
2 68319  51.6331 316.4579 0006239 262.1298  97.8982 15.48713693  1251
